{
"type": "FeatureCollection",
"name": "customers_by_region",
"crs": { "type": "name", "properties": { "name": "urn:ogc:def:crs:OGC:1.3:CRS84" } },
"features": [
{ "type": "Feature", "properties": { "id": 101, "name": "Acme Corp", "city": "Seattle", "lat": 47.6062, "lon": -122.3321, "annual_spend": 45200.5, "status": "active", "region_name": "Pacific Northwest", "zone_code": "PNW-01", "target_growth": 0.25 }, "geometry": { "type": "Point", "coordinates": [ -122.3321, 47.6062 ] } },
{ "type": "Feature", "properties": { "id": 102, "name": "Beta Logistics", "city": "Portland", "lat": 45.5152, "lon": -122.6784, "annual_spend": 12400.0, "status": "active", "region_name": "Pacific Northwest", "zone_code": "PNW-01", "target_growth": 0.25 }, "geometry": { "type": "Point", "coordinates": [ -122.6784, 45.5152 ] } },
{ "type": "Feature", "properties": { "id": 103, "name": "Gamma Energy", "city": "San Francisco", "lat": 37.7749, "lon": -122.4194, "annual_spend": 98000.0, "status": "active", "region_name": "California Coastal", "zone_code": "CAL-02", "target_growth": 0.35 }, "geometry": { "type": "Point", "coordinates": [ -122.4194, 37.7749 ] } },
{ "type": "Feature", "properties": { "id": 104, "name": "Delta Retail", "city": "Los Angeles", "lat": 34.0522, "lon": -118.2437, "annual_spend": 3200.0, "status": "inactive", "region_name": "California Coastal", "zone_code": "CAL-02", "target_growth": 0.35 }, "geometry": { "type": "Point", "coordinates": [ -118.2437, 34.0522 ] } },
{ "type": "Feature", "properties": { "id": 105, "name": "Epsilon AI", "city": "Seattle", "lat": 47.6101, "lon": -122.3421, "annual_spend": 87500.0, "status": "active", "region_name": "Pacific Northwest", "zone_code": "PNW-01", "target_growth": 0.25 }, "geometry": { "type": "Point", "coordinates": [ -122.3421, 47.6101 ] } },
{ "type": "Feature", "properties": { "id": 106, "name": "Zeta Health", "city": "San Jose", "lat": 37.3382, "lon": -121.8863, "annual_spend": 15000.0, "status": "pending", "region_name": "California Coastal", "zone_code": "CAL-02", "target_growth": 0.35 }, "geometry": { "type": "Point", "coordinates": [ -121.8863, 37.3382 ] } },
{ "type": "Feature", "properties": { "id": 107, "name": "Eta Robotics", "city": "San Francisco", "lat": 37.7833, "lon": -122.4167, "annual_spend": 112000.0, "status": "active", "region_name": "California Coastal", "zone_code": "CAL-02", "target_growth": 0.35 }, "geometry": { "type": "Point", "coordinates": [ -122.4167, 37.7833 ] } },
{ "type": "Feature", "properties": { "id": 108, "name": "Theta Solar", "city": "Portland", "lat": 45.5231, "lon": -122.6765, "annual_spend": 64000.0, "status": "active", "region_name": "Pacific Northwest", "zone_code": "PNW-01", "target_growth": 0.25 }, "geometry": { "type": "Point", "coordinates": [ -122.6765, 45.5231 ] } },
{ "type": "Feature", "properties": { "id": 109, "name": "Iota Bio", "city": "Sacramento", "lat": 38.5816, "lon": -121.4944, "annual_spend": 23000.0, "status": "active", "region_name": "California Coastal", "zone_code": "CAL-02", "target_growth": 0.35 }, "geometry": { "type": "Point", "coordinates": [ -121.4944, 38.5816 ] } },
{ "type": "Feature", "properties": { "id": 110, "name": "Kappa Media", "city": "Seattle", "lat": 47.6205, "lon": -122.3493, "annual_spend": 5100.0, "status": "inactive", "region_name": "Pacific Northwest", "zone_code": "PNW-01", "target_growth": 0.25 }, "geometry": { "type": "Point", "coordinates": [ -122.3493, 47.6205 ] } }
]
}
