{
"type": "FeatureCollection",
"name": "output_libraries",
"crs": { "type": "name", "properties": { "name": "urn:ogc:def:crs:OGC:1.3:CRS84" } },
"features": [
{ "type": "Feature", "properties": { "id": 101, "name": "Acme Corp", "city": "Seattle", "lat": 47.6062, "lon": -122.3321, "annual_spend": 45200.5, "status": "active" }, "geometry": { "type": "Polygon", "coordinates": [ [ [ -122.2821, 47.6062 ], [ -122.282340763666383, 47.601299142983521 ], [ -122.283060735979831, 47.596445483899195 ], [ -122.284252983213392, 47.591685766137275 ], [ -122.285906023374437, 47.587065828381746 ], [ -122.288003936782573, 47.582630163158704 ], [ -122.290526519384869, 47.578421488349022 ], [ -122.293449477331862, 47.574480335791819 ], [ -122.296744660940675, 47.570844660940672 ], [ -122.300380335791814, 47.567549477331866 ], [ -122.304321488349018, 47.564626519384873 ], [ -122.308530163158693, 47.562103936782584 ], [ -122.312965828381749, 47.560006023374434 ], [ -122.31758576613727, 47.558352983213389 ], [ -122.322345483899184, 47.557160735979842 ], [ -122.327199142983517, 47.556440763666394 ], [ -122.3321, 47.5562 ], [ -122.337000857016477, 47.556440763666394 ], [ -122.34185451610081, 47.557160735979842 ], [ -122.346614233862724, 47.558352983213389 ], [ -122.351234171618245, 47.560006023374434 ], [ -122.355669836841301, 47.562103936782584 ], [ -122.359878511650976, 47.564626519384873 ], [ -122.363819664208179, 47.567549477331866 ], [ -122.367455339059319, 47.570844660940672 ], [ -122.370750522668132, 47.574480335791819 ], [ -122.373673480615125, 47.578421488349022 ], [ -122.376196063217421, 47.582630163158704 ], [ -122.378293976625557, 47.587065828381746 ], [ -122.379947016786602, 47.591685766137275 ], [ -122.381139264020163, 47.596445483899195 ], [ -122.381859236333611, 47.601299142983521 ], [ -122.3821, 47.6062 ], [ -122.381859236333611, 47.611100857016481 ], [ -122.381139264020163, 47.615954516100807 ], [ -122.379947016786602, 47.620714233862728 ], [ -122.378293976625557, 47.625334171618256 ], [ -122.376196063217421, 47.629769836841298 ], [ -122.373673480615125, 47.63397851165098 ], [ -122.370750522668132, 47.637919664208184 ], [ -122.367455339059319, 47.64155533905933 ], [ -122.363819664208179, 47.644850522668136 ], [ -122.359878511650976, 47.647773480615129 ], [ -122.355669836841301, 47.650296063217418 ], [ -122.351234171618245, 47.652393976625568 ], [ -122.346614233862724, 47.654047016786613 ], [ -122.34185451610081, 47.65523926402016 ], [ -122.337000857016477, 47.655959236333608 ], [ -122.3321, 47.6562 ], [ -122.327199142983517, 47.655959236333608 ], [ -122.322345483899184, 47.65523926402016 ], [ -122.31758576613727, 47.654047016786613 ], [ -122.312965828381749, 47.652393976625568 ], [ -122.308530163158693, 47.650296063217418 ], [ -122.304321488349018, 47.647773480615129 ], [ -122.300380335791814, 47.644850522668136 ], [ -122.296744660940675, 47.64155533905933 ], [ -122.293449477331862, 47.637919664208184 ], [ -122.290526519384869, 47.63397851165098 ], [ -122.288003936782573, 47.629769836841298 ], [ -122.285906023374437, 47.625334171618256 ], [ -122.284252983213392, 47.620714233862728 ], [ -122.283060735979831, 47.615954516100807 ], [ -122.282340763666383, 47.611100857016481 ], [ -122.2821, 47.6062 ] ] ] } },
{ "type": "Feature", "properties": { "id": 102, "name": "Beta Logistics", "city": "Portland", "lat": 45.5152, "lon": -122.6784, "annual_spend": 12400.0, "status": "active" }, "geometry": { "type": "Polygon", "coordinates": [ [ [ -122.6284, 45.5152 ], [ -122.628640763666382, 45.51029914298352 ], [ -122.62936073597983, 45.505445483899194 ], [ -122.630552983213391, 45.500685766137273 ], [ -122.632206023374437, 45.496065828381745 ], [ -122.634303936782572, 45.491630163158703 ], [ -122.636826519384869, 45.487421488349021 ], [ -122.639749477331861, 45.483480335791818 ], [ -122.643044660940674, 45.479844660940671 ], [ -122.646680335791814, 45.476549477331865 ], [ -122.650621488349017, 45.473626519384872 ], [ -122.654830163158692, 45.471103936782583 ], [ -122.659265828381749, 45.469006023374433 ], [ -122.66388576613727, 45.467352983213388 ], [ -122.668645483899184, 45.466160735979841 ], [ -122.673499142983516, 45.465440763666393 ], [ -122.6784, 45.4652 ], [ -122.683300857016476, 45.465440763666393 ], [ -122.688154516100809, 45.466160735979841 ], [ -122.692914233862723, 45.467352983213388 ], [ -122.697534171618244, 45.469006023374433 ], [ -122.7019698368413, 45.471103936782583 ], [ -122.706178511650975, 45.473626519384872 ], [ -122.710119664208179, 45.476549477331865 ], [ -122.713755339059318, 45.479844660940671 ], [ -122.717050522668131, 45.483480335791818 ], [ -122.719973480615124, 45.487421488349021 ], [ -122.72249606321742, 45.491630163158703 ], [ -122.724593976625556, 45.496065828381745 ], [ -122.726247016786601, 45.500685766137273 ], [ -122.727439264020163, 45.505445483899194 ], [ -122.72815923633361, 45.51029914298352 ], [ -122.7284, 45.5152 ], [ -122.72815923633361, 45.52010085701648 ], [ -122.727439264020163, 45.524954516100806 ], [ -122.726247016786601, 45.529714233862727 ], [ -122.724593976625556, 45.534334171618255 ], [ -122.72249606321742, 45.538769836841297 ], [ -122.719973480615124, 45.542978511650979 ], [ -122.717050522668131, 45.546919664208183 ], [ -122.713755339059318, 45.550555339059329 ], [ -122.710119664208179, 45.553850522668135 ], [ -122.706178511650975, 45.556773480615128 ], [ -122.7019698368413, 45.559296063217417 ], [ -122.697534171618244, 45.561393976625567 ], [ -122.692914233862723, 45.563047016786612 ], [ -122.688154516100809, 45.564239264020159 ], [ -122.683300857016476, 45.564959236333607 ], [ -122.6784, 45.5652 ], [ -122.673499142983516, 45.564959236333607 ], [ -122.668645483899184, 45.564239264020159 ], [ -122.66388576613727, 45.563047016786612 ], [ -122.659265828381749, 45.561393976625567 ], [ -122.654830163158692, 45.559296063217417 ], [ -122.650621488349017, 45.556773480615128 ], [ -122.646680335791814, 45.553850522668135 ], [ -122.643044660940674, 45.550555339059329 ], [ -122.639749477331861, 45.546919664208183 ], [ -122.636826519384869, 45.542978511650979 ], [ -122.634303936782572, 45.538769836841297 ], [ -122.632206023374437, 45.534334171618255 ], [ -122.630552983213391, 45.529714233862727 ], [ -122.62936073597983, 45.524954516100806 ], [ -122.628640763666382, 45.52010085701648 ], [ -122.6284, 45.5152 ] ] ] } },
{ "type": "Feature", "properties": { "id": 103, "name": "Gamma Energy", "city": "San Francisco", "lat": 37.7749, "lon": -122.4194, "annual_spend": 98000.0, "status": "active" }, "geometry": { "type": "Polygon", "coordinates": [ [ [ -122.3694, 37.7749 ], [ -122.369640763666382, 37.769999142983522 ], [ -122.37036073597983, 37.765145483899197 ], [ -122.371552983213391, 37.760385766137276 ], [ -122.373206023374436, 37.755765828381747 ], [ -122.375303936782572, 37.751330163158705 ], [ -122.377826519384868, 37.747121488349023 ], [ -122.380749477331861, 37.74318033579182 ], [ -122.384044660940674, 37.739544660940673 ], [ -122.387680335791813, 37.736249477331867 ], [ -122.391621488349017, 37.733326519384875 ], [ -122.395830163158692, 37.730803936782586 ], [ -122.400265828381748, 37.728706023374436 ], [ -122.404885766137269, 37.72705298321339 ], [ -122.409645483899183, 37.725860735979843 ], [ -122.414499142983516, 37.725140763666396 ], [ -122.4194, 37.7249 ], [ -122.424300857016476, 37.725140763666396 ], [ -122.429154516100809, 37.725860735979843 ], [ -122.433914233862723, 37.72705298321339 ], [ -122.438534171618244, 37.728706023374436 ], [ -122.4429698368413, 37.730803936782586 ], [ -122.447178511650975, 37.733326519384875 ], [ -122.451119664208179, 37.736249477331867 ], [ -122.454755339059318, 37.739544660940673 ], [ -122.458050522668131, 37.74318033579182 ], [ -122.460973480615124, 37.747121488349023 ], [ -122.46349606321742, 37.751330163158705 ], [ -122.465593976625556, 37.755765828381747 ], [ -122.467247016786601, 37.760385766137276 ], [ -122.468439264020162, 37.765145483899197 ], [ -122.46915923633361, 37.769999142983522 ], [ -122.4694, 37.7749 ], [ -122.46915923633361, 37.779800857016482 ], [ -122.468439264020162, 37.784654516100808 ], [ -122.467247016786601, 37.789414233862729 ], [ -122.465593976625556, 37.794034171618257 ], [ -122.46349606321742, 37.798469836841299 ], [ -122.460973480615124, 37.802678511650981 ], [ -122.458050522668131, 37.806619664208185 ], [ -122.454755339059318, 37.810255339059331 ], [ -122.451119664208179, 37.813550522668137 ], [ -122.447178511650975, 37.81647348061513 ], [ -122.4429698368413, 37.818996063217419 ], [ -122.438534171618244, 37.821093976625569 ], [ -122.433914233862723, 37.822747016786614 ], [ -122.429154516100809, 37.823939264020161 ], [ -122.424300857016476, 37.824659236333609 ], [ -122.4194, 37.8249 ], [ -122.414499142983516, 37.824659236333609 ], [ -122.409645483899183, 37.823939264020161 ], [ -122.404885766137269, 37.822747016786614 ], [ -122.400265828381748, 37.821093976625569 ], [ -122.395830163158692, 37.818996063217419 ], [ -122.391621488349017, 37.81647348061513 ], [ -122.387680335791813, 37.813550522668137 ], [ -122.384044660940674, 37.810255339059331 ], [ -122.380749477331861, 37.806619664208185 ], [ -122.377826519384868, 37.802678511650981 ], [ -122.375303936782572, 37.798469836841299 ], [ -122.373206023374436, 37.794034171618257 ], [ -122.371552983213391, 37.789414233862729 ], [ -122.37036073597983, 37.784654516100808 ], [ -122.369640763666382, 37.779800857016482 ], [ -122.3694, 37.7749 ] ] ] } },
{ "type": "Feature", "properties": { "id": 104, "name": "Delta Retail", "city": "Los Angeles", "lat": 34.0522, "lon": -118.2437, "annual_spend": 3200.0, "status": "inactive" }, "geometry": { "type": "Polygon", "coordinates": [ [ [ -118.1937, 34.0522 ], [ -118.19394076366639, 34.047299142983519 ], [ -118.194660735979838, 34.042445483899193 ], [ -118.195852983213399, 34.037685766137272 ], [ -118.197506023374444, 34.033065828381744 ], [ -118.19960393678258, 34.028630163158702 ], [ -118.202126519384876, 34.02442148834902 ], [ -118.205049477331869, 34.020480335791817 ], [ -118.208344660940682, 34.01684466094067 ], [ -118.211980335791822, 34.013549477331864 ], [ -118.215921488349025, 34.010626519384871 ], [ -118.2201301631587, 34.008103936782582 ], [ -118.224565828381756, 34.006006023374432 ], [ -118.229185766137277, 34.004352983213387 ], [ -118.233945483899191, 34.00316073597984 ], [ -118.238799142983524, 34.002440763666392 ], [ -118.2437, 34.0022 ], [ -118.248600857016484, 34.002440763666392 ], [ -118.253454516100817, 34.00316073597984 ], [ -118.258214233862731, 34.004352983213387 ], [ -118.262834171618252, 34.006006023374432 ], [ -118.267269836841308, 34.008103936782582 ], [ -118.271478511650983, 34.010626519384871 ], [ -118.275419664208187, 34.013549477331864 ], [ -118.279055339059326, 34.01684466094067 ], [ -118.282350522668139, 34.020480335791817 ], [ -118.285273480615132, 34.02442148834902 ], [ -118.287796063217428, 34.028630163158702 ], [ -118.289893976625564, 34.033065828381744 ], [ -118.291547016786609, 34.037685766137272 ], [ -118.29273926402017, 34.042445483899193 ], [ -118.293459236333618, 34.047299142983519 ], [ -118.2937, 34.0522 ], [ -118.293459236333618, 34.057100857016479 ], [ -118.29273926402017, 34.061954516100805 ], [ -118.291547016786609, 34.066714233862726 ], [ -118.289893976625564, 34.071334171618254 ], [ -118.287796063217428, 34.075769836841296 ], [ -118.285273480615132, 34.079978511650978 ], [ -118.282350522668139, 34.083919664208182 ], [ -118.279055339059326, 34.087555339059328 ], [ -118.275419664208187, 34.090850522668134 ], [ -118.271478511650983, 34.093773480615127 ], [ -118.267269836841308, 34.096296063217416 ], [ -118.262834171618252, 34.098393976625566 ], [ -118.258214233862731, 34.100047016786611 ], [ -118.253454516100817, 34.101239264020158 ], [ -118.248600857016484, 34.101959236333606 ], [ -118.2437, 34.1022 ], [ -118.238799142983524, 34.101959236333606 ], [ -118.233945483899191, 34.101239264020158 ], [ -118.229185766137277, 34.100047016786611 ], [ -118.224565828381756, 34.098393976625566 ], [ -118.2201301631587, 34.096296063217416 ], [ -118.215921488349025, 34.093773480615127 ], [ -118.211980335791822, 34.090850522668134 ], [ -118.208344660940682, 34.087555339059328 ], [ -118.205049477331869, 34.083919664208182 ], [ -118.202126519384876, 34.079978511650978 ], [ -118.19960393678258, 34.075769836841296 ], [ -118.197506023374444, 34.071334171618254 ], [ -118.195852983213399, 34.066714233862726 ], [ -118.194660735979838, 34.061954516100805 ], [ -118.19394076366639, 34.057100857016479 ], [ -118.1937, 34.0522 ] ] ] } },
{ "type": "Feature", "properties": { "id": 105, "name": "Epsilon AI", "city": "Seattle", "lat": 47.6101, "lon": -122.3421, "annual_spend": 87500.0, "status": "active" }, "geometry": { "type": "Polygon", "coordinates": [ [ [ -122.2921, 47.6101 ], [ -122.292340763666388, 47.605199142983523 ], [ -122.293060735979836, 47.600345483899197 ], [ -122.294252983213397, 47.595585766137276 ], [ -122.295906023374442, 47.590965828381748 ], [ -122.298003936782578, 47.586530163158706 ], [ -122.300526519384874, 47.582321488349024 ], [ -122.303449477331867, 47.57838033579182 ], [ -122.30674466094068, 47.574744660940674 ], [ -122.31038033579182, 47.571449477331868 ], [ -122.314321488349023, 47.568526519384875 ], [ -122.318530163158698, 47.566003936782586 ], [ -122.322965828381754, 47.563906023374436 ], [ -122.327585766137275, 47.562252983213391 ], [ -122.332345483899189, 47.561060735979844 ], [ -122.337199142983522, 47.560340763666396 ], [ -122.3421, 47.5601 ], [ -122.347000857016482, 47.560340763666396 ], [ -122.351854516100815, 47.561060735979844 ], [ -122.356614233862729, 47.562252983213391 ], [ -122.36123417161825, 47.563906023374436 ], [ -122.365669836841306, 47.566003936782586 ], [ -122.369878511650981, 47.568526519384875 ], [ -122.373819664208185, 47.571449477331868 ], [ -122.377455339059324, 47.574744660940674 ], [ -122.380750522668137, 47.57838033579182 ], [ -122.38367348061513, 47.582321488349024 ], [ -122.386196063217426, 47.586530163158706 ], [ -122.388293976625562, 47.590965828381748 ], [ -122.389947016786607, 47.595585766137276 ], [ -122.391139264020168, 47.600345483899197 ], [ -122.391859236333616, 47.605199142983523 ], [ -122.3921, 47.6101 ], [ -122.391859236333616, 47.615000857016483 ], [ -122.391139264020168, 47.619854516100808 ], [ -122.389947016786607, 47.624614233862729 ], [ -122.388293976625562, 47.629234171618258 ], [ -122.386196063217426, 47.6336698368413 ], [ -122.38367348061513, 47.637878511650982 ], [ -122.380750522668137, 47.641819664208185 ], [ -122.377455339059324, 47.645455339059332 ], [ -122.373819664208185, 47.648750522668138 ], [ -122.369878511650981, 47.651673480615131 ], [ -122.365669836841306, 47.65419606321742 ], [ -122.36123417161825, 47.65629397662557 ], [ -122.356614233862729, 47.657947016786615 ], [ -122.351854516100815, 47.659139264020162 ], [ -122.347000857016482, 47.65985923633361 ], [ -122.3421, 47.6601 ], [ -122.337199142983522, 47.65985923633361 ], [ -122.332345483899189, 47.659139264020162 ], [ -122.327585766137275, 47.657947016786615 ], [ -122.322965828381754, 47.65629397662557 ], [ -122.318530163158698, 47.65419606321742 ], [ -122.314321488349023, 47.651673480615131 ], [ -122.31038033579182, 47.648750522668138 ], [ -122.30674466094068, 47.645455339059332 ], [ -122.303449477331867, 47.641819664208185 ], [ -122.300526519384874, 47.637878511650982 ], [ -122.298003936782578, 47.6336698368413 ], [ -122.295906023374442, 47.629234171618258 ], [ -122.294252983213397, 47.624614233862729 ], [ -122.293060735979836, 47.619854516100808 ], [ -122.292340763666388, 47.615000857016483 ], [ -122.2921, 47.6101 ] ] ] } },
{ "type": "Feature", "properties": { "id": 106, "name": "Zeta Health", "city": "San Jose", "lat": 37.3382, "lon": -121.8863, "annual_spend": 15000.0, "status": "pending" }, "geometry": { "type": "Polygon", "coordinates": [ [ [ -121.8363, 37.3382 ], [ -121.836540763666392, 37.33329914298352 ], [ -121.837260735979839, 37.328445483899195 ], [ -121.838452983213401, 37.323685766137274 ], [ -121.840106023374446, 37.319065828381746 ], [ -121.842203936782582, 37.314630163158704 ], [ -121.844726519384878, 37.310421488349022 ], [ -121.847649477331871, 37.306480335791818 ], [ -121.850944660940684, 37.302844660940671 ], [ -121.854580335791823, 37.299549477331865 ], [ -121.858521488349027, 37.296626519384873 ], [ -121.862730163158702, 37.294103936782584 ], [ -121.867165828381758, 37.292006023374434 ], [ -121.871785766137279, 37.290352983213388 ], [ -121.876545483899193, 37.289160735979841 ], [ -121.881399142983526, 37.288440763666394 ], [ -121.8863, 37.2882 ], [ -121.891200857016486, 37.288440763666394 ], [ -121.896054516100818, 37.289160735979841 ], [ -121.900814233862732, 37.290352983213388 ], [ -121.905434171618253, 37.292006023374434 ], [ -121.90986983684131, 37.294103936782584 ], [ -121.914078511650985, 37.296626519384873 ], [ -121.918019664208188, 37.299549477331865 ], [ -121.921655339059328, 37.302844660940671 ], [ -121.924950522668141, 37.306480335791818 ], [ -121.927873480615133, 37.310421488349022 ], [ -121.93039606321743, 37.314630163158704 ], [ -121.932493976625565, 37.319065828381746 ], [ -121.934147016786611, 37.323685766137274 ], [ -121.935339264020172, 37.328445483899195 ], [ -121.93605923633362, 37.33329914298352 ], [ -121.9363, 37.3382 ], [ -121.93605923633362, 37.343100857016481 ], [ -121.935339264020172, 37.347954516100806 ], [ -121.934147016786611, 37.352714233862727 ], [ -121.932493976625565, 37.357334171618255 ], [ -121.93039606321743, 37.361769836841297 ], [ -121.927873480615133, 37.365978511650979 ], [ -121.924950522668141, 37.369919664208183 ], [ -121.921655339059328, 37.37355533905933 ], [ -121.918019664208188, 37.376850522668136 ], [ -121.914078511650985, 37.379773480615128 ], [ -121.90986983684131, 37.382296063217417 ], [ -121.905434171618253, 37.384393976625567 ], [ -121.900814233862732, 37.386047016786613 ], [ -121.896054516100818, 37.38723926402016 ], [ -121.891200857016486, 37.387959236333607 ], [ -121.8863, 37.3882 ], [ -121.881399142983526, 37.387959236333607 ], [ -121.876545483899193, 37.38723926402016 ], [ -121.871785766137279, 37.386047016786613 ], [ -121.867165828381758, 37.384393976625567 ], [ -121.862730163158702, 37.382296063217417 ], [ -121.858521488349027, 37.379773480615128 ], [ -121.854580335791823, 37.376850522668136 ], [ -121.850944660940684, 37.37355533905933 ], [ -121.847649477331871, 37.369919664208183 ], [ -121.844726519384878, 37.365978511650979 ], [ -121.842203936782582, 37.361769836841297 ], [ -121.840106023374446, 37.357334171618255 ], [ -121.838452983213401, 37.352714233862727 ], [ -121.837260735979839, 37.347954516100806 ], [ -121.836540763666392, 37.343100857016481 ], [ -121.8363, 37.3382 ] ] ] } },
{ "type": "Feature", "properties": { "id": 107, "name": "Eta Robotics", "city": "San Francisco", "lat": 37.7833, "lon": -122.4167, "annual_spend": 112000.0, "status": "active" }, "geometry": { "type": "Polygon", "coordinates": [ [ [ -122.3667, 37.7833 ], [ -122.366940763666392, 37.778399142983517 ], [ -122.36766073597984, 37.773545483899191 ], [ -122.368852983213401, 37.76878576613727 ], [ -122.370506023374446, 37.764165828381742 ], [ -122.372603936782582, 37.7597301631587 ], [ -122.375126519384878, 37.755521488349018 ], [ -122.378049477331871, 37.751580335791814 ], [ -122.381344660940684, 37.747944660940668 ], [ -122.384980335791823, 37.744649477331862 ], [ -122.388921488349027, 37.741726519384869 ], [ -122.393130163158702, 37.73920393678258 ], [ -122.397565828381758, 37.73710602337443 ], [ -122.402185766137279, 37.735452983213385 ], [ -122.406945483899193, 37.734260735979838 ], [ -122.411799142983526, 37.73354076366639 ], [ -122.4167, 37.7333 ], [ -122.421600857016486, 37.73354076366639 ], [ -122.426454516100819, 37.734260735979838 ], [ -122.431214233862732, 37.735452983213385 ], [ -122.435834171618254, 37.73710602337443 ], [ -122.44026983684131, 37.73920393678258 ], [ -122.444478511650985, 37.741726519384869 ], [ -122.448419664208188, 37.744649477331862 ], [ -122.452055339059328, 37.747944660940668 ], [ -122.455350522668141, 37.751580335791814 ], [ -122.458273480615134, 37.755521488349018 ], [ -122.46079606321743, 37.7597301631587 ], [ -122.462893976625566, 37.764165828381742 ], [ -122.464547016786611, 37.76878576613727 ], [ -122.465739264020172, 37.773545483899191 ], [ -122.46645923633362, 37.778399142983517 ], [ -122.4667, 37.7833 ], [ -122.46645923633362, 37.788200857016477 ], [ -122.465739264020172, 37.793054516100803 ], [ -122.464547016786611, 37.797814233862724 ], [ -122.462893976625566, 37.802434171618252 ], [ -122.46079606321743, 37.806869836841294 ], [ -122.458273480615134, 37.811078511650976 ], [ -122.455350522668141, 37.81501966420818 ], [ -122.452055339059328, 37.818655339059326 ], [ -122.448419664208188, 37.821950522668132 ], [ -122.444478511650985, 37.824873480615125 ], [ -122.44026983684131, 37.827396063217414 ], [ -122.435834171618254, 37.829493976625564 ], [ -122.431214233862732, 37.831147016786609 ], [ -122.426454516100819, 37.832339264020156 ], [ -122.421600857016486, 37.833059236333604 ], [ -122.4167, 37.8333 ], [ -122.411799142983526, 37.833059236333604 ], [ -122.406945483899193, 37.832339264020156 ], [ -122.402185766137279, 37.831147016786609 ], [ -122.397565828381758, 37.829493976625564 ], [ -122.393130163158702, 37.827396063217414 ], [ -122.388921488349027, 37.824873480615125 ], [ -122.384980335791823, 37.821950522668132 ], [ -122.381344660940684, 37.818655339059326 ], [ -122.378049477331871, 37.81501966420818 ], [ -122.375126519384878, 37.811078511650976 ], [ -122.372603936782582, 37.806869836841294 ], [ -122.370506023374446, 37.802434171618252 ], [ -122.368852983213401, 37.797814233862724 ], [ -122.36766073597984, 37.793054516100803 ], [ -122.366940763666392, 37.788200857016477 ], [ -122.3667, 37.7833 ] ] ] } },
{ "type": "Feature", "properties": { "id": 108, "name": "Theta Solar", "city": "Portland", "lat": 45.5231, "lon": -122.6765, "annual_spend": 64000.0, "status": "active" }, "geometry": { "type": "Polygon", "coordinates": [ [ [ -122.6265, 45.5231 ], [ -122.62674076366639, 45.518199142983519 ], [ -122.627460735979838, 45.513345483899194 ], [ -122.628652983213399, 45.508585766137273 ], [ -122.630306023374445, 45.503965828381745 ], [ -122.63240393678258, 45.499530163158703 ], [ -122.634926519384877, 45.49532148834902 ], [ -122.637849477331869, 45.491380335791817 ], [ -122.641144660940682, 45.48774466094067 ], [ -122.644780335791822, 45.484449477331864 ], [ -122.648721488349025, 45.481526519384872 ], [ -122.6529301631587, 45.479003936782583 ], [ -122.657365828381757, 45.476906023374433 ], [ -122.661985766137278, 45.475252983213387 ], [ -122.666745483899192, 45.47406073597984 ], [ -122.671599142983524, 45.473340763666393 ], [ -122.6765, 45.4731 ], [ -122.681400857016484, 45.473340763666393 ], [ -122.686254516100817, 45.47406073597984 ], [ -122.691014233862731, 45.475252983213387 ], [ -122.695634171618252, 45.476906023374433 ], [ -122.700069836841308, 45.479003936782583 ], [ -122.704278511650983, 45.481526519384872 ], [ -122.708219664208187, 45.484449477331864 ], [ -122.711855339059326, 45.48774466094067 ], [ -122.715150522668139, 45.491380335791817 ], [ -122.718073480615132, 45.49532148834902 ], [ -122.720596063217428, 45.499530163158703 ], [ -122.722693976625564, 45.503965828381745 ], [ -122.724347016786609, 45.508585766137273 ], [ -122.725539264020171, 45.513345483899194 ], [ -122.726259236333618, 45.518199142983519 ], [ -122.7265, 45.5231 ], [ -122.726259236333618, 45.52800085701648 ], [ -122.725539264020171, 45.532854516100805 ], [ -122.724347016786609, 45.537614233862726 ], [ -122.722693976625564, 45.542234171618254 ], [ -122.720596063217428, 45.546669836841296 ], [ -122.718073480615132, 45.550878511650978 ], [ -122.715150522668139, 45.554819664208182 ], [ -122.711855339059326, 45.558455339059329 ], [ -122.708219664208187, 45.561750522668135 ], [ -122.704278511650983, 45.564673480615127 ], [ -122.700069836841308, 45.567196063217416 ], [ -122.695634171618252, 45.569293976625566 ], [ -122.691014233862731, 45.570947016786612 ], [ -122.686254516100817, 45.572139264020159 ], [ -122.681400857016484, 45.572859236333606 ], [ -122.6765, 45.5731 ], [ -122.671599142983524, 45.572859236333606 ], [ -122.666745483899192, 45.572139264020159 ], [ -122.661985766137278, 45.570947016786612 ], [ -122.657365828381757, 45.569293976625566 ], [ -122.6529301631587, 45.567196063217416 ], [ -122.648721488349025, 45.564673480615127 ], [ -122.644780335791822, 45.561750522668135 ], [ -122.641144660940682, 45.558455339059329 ], [ -122.637849477331869, 45.554819664208182 ], [ -122.634926519384877, 45.550878511650978 ], [ -122.63240393678258, 45.546669836841296 ], [ -122.630306023374445, 45.542234171618254 ], [ -122.628652983213399, 45.537614233862726 ], [ -122.627460735979838, 45.532854516100805 ], [ -122.62674076366639, 45.52800085701648 ], [ -122.6265, 45.5231 ] ] ] } },
{ "type": "Feature", "properties": { "id": 109, "name": "Iota Bio", "city": "Sacramento", "lat": 38.5816, "lon": -121.4944, "annual_spend": 23000.0, "status": "active" }, "geometry": { "type": "Polygon", "coordinates": [ [ [ -121.4444, 38.5816 ], [ -121.444640763666385, 38.576699142983522 ], [ -121.445360735979833, 38.571845483899196 ], [ -121.446552983213394, 38.567085766137275 ], [ -121.448206023374439, 38.562465828381747 ], [ -121.450303936782575, 38.558030163158705 ], [ -121.452826519384871, 38.553821488349023 ], [ -121.455749477331864, 38.549880335791819 ], [ -121.459044660940677, 38.546244660940673 ], [ -121.462680335791816, 38.542949477331867 ], [ -121.46662148834902, 38.540026519384874 ], [ -121.470830163158695, 38.537503936782585 ], [ -121.475265828381751, 38.535406023374435 ], [ -121.479885766137272, 38.53375298321339 ], [ -121.484645483899186, 38.532560735979843 ], [ -121.489499142983519, 38.531840763666395 ], [ -121.4944, 38.5316 ], [ -121.499300857016479, 38.531840763666395 ], [ -121.504154516100812, 38.532560735979843 ], [ -121.508914233862725, 38.53375298321339 ], [ -121.513534171618247, 38.535406023374435 ], [ -121.517969836841303, 38.537503936782585 ], [ -121.522178511650978, 38.540026519384874 ], [ -121.526119664208181, 38.542949477331867 ], [ -121.529755339059321, 38.546244660940673 ], [ -121.533050522668134, 38.549880335791819 ], [ -121.535973480615127, 38.553821488349023 ], [ -121.538496063217423, 38.558030163158705 ], [ -121.540593976625559, 38.562465828381747 ], [ -121.542247016786604, 38.567085766137275 ], [ -121.543439264020165, 38.571845483899196 ], [ -121.544159236333613, 38.576699142983522 ], [ -121.5444, 38.5816 ], [ -121.544159236333613, 38.586500857016482 ], [ -121.543439264020165, 38.591354516100807 ], [ -121.542247016786604, 38.596114233862728 ], [ -121.540593976625559, 38.600734171618257 ], [ -121.538496063217423, 38.605169836841299 ], [ -121.535973480615127, 38.609378511650981 ], [ -121.533050522668134, 38.613319664208184 ], [ -121.529755339059321, 38.616955339059331 ], [ -121.526119664208181, 38.620250522668137 ], [ -121.522178511650978, 38.623173480615129 ], [ -121.517969836841303, 38.625696063217418 ], [ -121.513534171618247, 38.627793976625568 ], [ -121.508914233862725, 38.629447016786614 ], [ -121.504154516100812, 38.630639264020161 ], [ -121.499300857016479, 38.631359236333608 ], [ -121.4944, 38.6316 ], [ -121.489499142983519, 38.631359236333608 ], [ -121.484645483899186, 38.630639264020161 ], [ -121.479885766137272, 38.629447016786614 ], [ -121.475265828381751, 38.627793976625568 ], [ -121.470830163158695, 38.625696063217418 ], [ -121.46662148834902, 38.623173480615129 ], [ -121.462680335791816, 38.620250522668137 ], [ -121.459044660940677, 38.616955339059331 ], [ -121.455749477331864, 38.613319664208184 ], [ -121.452826519384871, 38.609378511650981 ], [ -121.450303936782575, 38.605169836841299 ], [ -121.448206023374439, 38.600734171618257 ], [ -121.446552983213394, 38.596114233862728 ], [ -121.445360735979833, 38.591354516100807 ], [ -121.444640763666385, 38.586500857016482 ], [ -121.4444, 38.5816 ] ] ] } },
{ "type": "Feature", "properties": { "id": 110, "name": "Kappa Media", "city": "Seattle", "lat": 47.6205, "lon": -122.3493, "annual_spend": 5100.0, "status": "inactive" }, "geometry": { "type": "Polygon", "coordinates": [ [ [ -122.2993, 47.6205 ], [ -122.299540763666386, 47.61559914298352 ], [ -122.300260735979833, 47.610745483899194 ], [ -122.301452983213395, 47.605985766137273 ], [ -122.30310602337444, 47.601365828381745 ], [ -122.305203936782576, 47.596930163158703 ], [ -122.307726519384872, 47.592721488349021 ], [ -122.310649477331864, 47.588780335791817 ], [ -122.313944660940678, 47.585144660940671 ], [ -122.317580335791817, 47.581849477331865 ], [ -122.321521488349021, 47.578926519384872 ], [ -122.325730163158696, 47.576403936782583 ], [ -122.330165828381752, 47.574306023374433 ], [ -122.334785766137273, 47.572652983213388 ], [ -122.339545483899187, 47.571460735979841 ], [ -122.344399142983519, 47.570740763666393 ], [ -122.3493, 47.5705 ], [ -122.35420085701648, 47.570740763666393 ], [ -122.359054516100812, 47.571460735979841 ], [ -122.363814233862726, 47.572652983213388 ], [ -122.368434171618247, 47.574306023374433 ], [ -122.372869836841303, 47.576403936782583 ], [ -122.377078511650978, 47.578926519384872 ], [ -122.381019664208182, 47.581849477331865 ], [ -122.384655339059321, 47.585144660940671 ], [ -122.387950522668135, 47.588780335791817 ], [ -122.390873480615127, 47.592721488349021 ], [ -122.393396063217423, 47.596930163158703 ], [ -122.395493976625559, 47.601365828381745 ], [ -122.397147016786604, 47.605985766137273 ], [ -122.398339264020166, 47.610745483899194 ], [ -122.399059236333613, 47.61559914298352 ], [ -122.3993, 47.6205 ], [ -122.399059236333613, 47.62540085701648 ], [ -122.398339264020166, 47.630254516100806 ], [ -122.397147016786604, 47.635014233862726 ], [ -122.395493976625559, 47.639634171618255 ], [ -122.393396063217423, 47.644069836841297 ], [ -122.390873480615127, 47.648278511650979 ], [ -122.387950522668135, 47.652219664208182 ], [ -122.384655339059321, 47.655855339059329 ], [ -122.381019664208182, 47.659150522668135 ], [ -122.377078511650978, 47.662073480615128 ], [ -122.372869836841303, 47.664596063217417 ], [ -122.368434171618247, 47.666693976625567 ], [ -122.363814233862726, 47.668347016786612 ], [ -122.359054516100812, 47.669539264020159 ], [ -122.35420085701648, 47.670259236333607 ], [ -122.3493, 47.6705 ], [ -122.344399142983519, 47.670259236333607 ], [ -122.339545483899187, 47.669539264020159 ], [ -122.334785766137273, 47.668347016786612 ], [ -122.330165828381752, 47.666693976625567 ], [ -122.325730163158696, 47.664596063217417 ], [ -122.321521488349021, 47.662073480615128 ], [ -122.317580335791817, 47.659150522668135 ], [ -122.313944660940678, 47.655855339059329 ], [ -122.310649477331864, 47.652219664208182 ], [ -122.307726519384872, 47.648278511650979 ], [ -122.305203936782576, 47.644069836841297 ], [ -122.30310602337444, 47.639634171618255 ], [ -122.301452983213395, 47.635014233862726 ], [ -122.300260735979833, 47.630254516100806 ], [ -122.299540763666386, 47.62540085701648 ], [ -122.2993, 47.6205 ] ] ] } }
]
}
