{
"type": "FeatureCollection",
"name": "region_centroids",
"crs": { "type": "name", "properties": { "name": "urn:ogc:def:crs:OGC:1.3:CRS84" } },
"features": [
{ "type": "Feature", "properties": { "region_name": "Pacific Northwest", "zone_code": "PNW-01", "target_growth": 0.25, "centroid_x": -120.5, "centroid_y": 45.5 }, "geometry": { "type": "Point", "coordinates": [ -120.5, 45.5 ] } },
{ "type": "Feature", "properties": { "region_name": "California Coastal", "zone_code": "CAL-02", "target_growth": 0.35, "centroid_x": -120.75, "centroid_y": 36.25 }, "geometry": { "type": "Point", "coordinates": [ -120.75, 36.25 ] } }
]
}
