{
  "type": "FeatureCollection",
  "features": [
    {
      "type": "Feature",
      "properties": { "region_name": "Pacific Northwest", "zone_code": "PNW-01", "target_growth": 0.25 },
      "geometry": {
        "type": "Polygon",
        "coordinates": [
          [
            [-125.0, 42.0],
            [-116.0, 42.0],
            [-116.0, 49.0],
            [-125.0, 49.0],
            [-125.0, 42.0]
          ]
        ]
      }
    },
    {
      "type": "Feature",
      "properties": { "region_name": "California Coastal", "zone_code": "CAL-02", "target_growth": 0.35 },
      "geometry": {
        "type": "Polygon",
        "coordinates": [
          [
            [-124.5, 32.5],
            [-117.0, 32.5],
            [-120.0, 40.0],
            [-124.5, 40.0],
            [-124.5, 32.5]
          ]
        ]
      }
    }
  ]
}
